DUBAISAT-1              
1 35682U 09041B   26162.39116850  .00000627  00000+0  10044-3 0  9994
2 35682  98.0044 295.7128 0011741  90.1964 270.0590 14.75114193904246
OCEANSAT-2              
1 35931U 09051A   26162.62365626  .00000011  00000+0  33601-4 0  9997
2 35931  98.2324 150.0301 0014807 253.0065 106.9479 13.99664700878556
WORLDVIEW-2 (WV-2)      
1 35946U 09055A   26162.59691072  .00000088  00000+0  43662-4 0  9992
2 35946  98.4736 236.1234 0003399 227.8195 132.2704 14.37897775874843
SMOS                    
1 36036U 09059A   26162.49088355  .00000222  00000+0  84820-4 0  9991
2 36036  98.4425 349.9093 0001319  88.8797 271.2542 14.39769543872630
YAOGAN-7                
1 36110U 09069A   26162.60512314  .00000427  00000+0  66218-4 0  9993
2 36110  98.0080  48.5065 0025850  58.9791 301.3954 14.78004259888802
TANDEM-X                
1 36605U 10030A   26160.28753286  .00000776  00000+0  40127-4 0  9997
2 36605  97.4454 168.1075 0001902  90.0350 270.1102 15.19149708885449
CARTOSAT-2B             
1 36795U 10035A   26162.58773453  .00001100  00000+0  15714-3 0  9990
2 36795  97.9959 213.1733 0010710 202.5003 157.5740 14.78656567859029
YAOGAN-10               
1 36834U 10038A   26162.63495071  .00001680  00000+0  20165-3 0  9999
2 36834  97.8982 186.0834 0001648  89.9178  23.9911 14.85331968856383
COSMO-SKYMED 4          
1 37216U 10060A   26162.63783649 -.00000064  00000+0 -14330-5 0  9996
2 37216  97.8890 346.3185 0001404  79.6414 280.4958 14.82147694843740
RESOURCESAT-2           
1 37387U 11015A   26162.59916221  .00000052  00000+0  43938-4 0  9995
2 37387  98.7644 230.0794 0010123 273.5130  86.4890 14.21605244785386
HAIYANG-2A              
1 37781U 11043A   26162.57872211 -.00000119  00000+0 -80059-4 0  9993
2 37781  99.3396 165.3785 0006184 102.0560 258.1283 13.74458053745886
RASAT                   
1 37791U 11044D   26162.59852161  .00000687  00000+0  12758-3 0  9997
2 37791  98.0569 254.0807 0019786 206.9066 265.4300 14.68162266792361
SRMSAT                  
1 37841U 11058D   26162.51581193  .00000355  00000+0  48954-4 0  9994
2 37841  19.9715  93.7945 0011909 141.4141  27.1536 14.11574372757019
PLEIADES 1A             
1 38012U 11076F   26162.65035869  .00000477  00000+0  11242-3 0  9998
2 38012  98.1975 237.8275 0001569  96.9186  31.9917 14.58568426771182
ZIYUAN 1-02C (ZY 1-02C) 
1 38038U 11079A   26162.66019191  .00000700  00000+0  24451-3 0  9995
2 38038  98.4073 230.0842 0005856 335.5611 144.0390 14.38211725758412
ARIRANG-3 (KOMPSAT-3)   
1 38338U 12025B   26162.62668473  .00000364  00000+0  81556-4 0  9995
2 38338  98.1175 120.1827 0006459 123.4805 236.7014 14.62201321750531
EXACTVIEW-1 (ADS-1B)    
1 38709U 12039C   26162.55333182  .00000091  00000+0  58582-4 0  9990
2 38709  98.9771 279.8164 0010859 182.3733 177.7396 14.24982965721906
SPOT 6                  
1 38755U 12047A   26162.64112101  .00000546  00000+0  12739-3 0  9994
2 38755  98.2121 230.0150 0001455  90.7012 269.4354 14.58560936732246
PLEIADES 1B             
1 39019U 12068A   26162.59142705  .00000525  00000+0  12269-3 0  9993
2 39019  98.1946 237.7202 0001630  94.0448 266.0938 14.58558253720035
GOKTURK 2               
1 39030U 12073A   26162.58793035  .00000694  00000+0  10881-3 0  9994
2 39030  97.6828   0.3002 0001785  58.9424 301.1961 14.75538122723680
LANDSAT 8               
1 39084U 13008A   26162.59977216  .00000277  00000+0  71517-4 0  9999
2 39084  98.2302 232.8012 0001375  93.1280 267.0076 14.57090820697081
SARAL                   
1 39086U 13009A   26162.59411678  .00000084  00000+0  46917-4 0  9999
2 39086  98.5557 349.2323 0001004 339.6554  20.4590 14.32854567694805
GAOFEN-1                
1 39150U 13018A   26162.64162260  .00000608  00000+0  94371-4 0  9996
2 39150  97.9095 234.8222 0015748 285.9618  73.9857 14.76532378707421
VNREDSAT 1              
1 39160U 13021B   26162.62444003  .00000469  00000+0  96333-4 0  9992
2 39160  97.9085 216.2542 0001657  89.3697 270.7697 14.64851323699472
ARIRANG-5 (KOMPSAT-5)   
1 39227U 13042A   26162.57929191  .00001238  00000+0  92856-4 0  9990
2 39227  97.6218 349.3592 0004816 135.6105 224.5507 15.04476719703013
SKYSAT-A                
1 39418U 13066C   26162.37110054  .00002300  00000+0  13349-3 0  9996
2 39418  97.3821 211.9533 0020615 338.6533  21.3837 15.12942690687606
DUBAISAT-2              
1 39419U 13066D   26162.63749001  .00003894  00000+0  24214-3 0  9998
2 39419  97.4564 152.9269 0012785  57.4978 302.7485 15.10142589685554
GPM-CORE                
1 39574U 14009C   26162.64091280  .00010891  00000+0  23855-3 0  9993
2 39574  64.9722 326.7007 0012117 249.4481 110.5360 15.44448866696950
SENTINEL-1A             
1 39634U 14016A   26161.51035463  .00000288  00000+0  70740-4 0  9999
2 39634  98.1783 169.1406 0001436  80.9924 279.1438 14.59199013649045
KAZEOSAT 1              
1 39731U 14024A   26162.60968902  .00000352  00000+0  12018-3 0  9995
2 39731  98.3205 235.1957 0001448  75.2402 284.8949 14.42078692637756
