OBJECT_NAME,OBJECT_ID,EPOCH,MEAN_MOTION,ECCENTRICITY,INCLINATION,RA_OF_ASC_NODE,ARG_OF_PERICENTER,MEAN_ANOMALY,EPHEMERIS_TYPE,CLASSIFICATION_TYPE,NORAD_CAT_ID,ELEMENT_SET_NO,REV_AT_EPOCH,BSTAR,MEAN_MOTION_DOT,MEAN_MOTION_DDOT
DUBAISAT-1,2009-041B,2026-06-11T09:23:16.958400,14.75114193,.00117415,98.0044,295.7128,90.1964,270.0590,0,U,35682,999,90424,.1004373E-3,.627E-5,0
OCEANSAT-2,2009-051A,2026-06-11T14:58:03.900864,13.99664700,.00148077,98.2324,150.0301,253.0065,106.9479,0,U,35931,999,87855,.33600864E-4,.11E-6,0
WORLDVIEW-2 (WV-2),2009-055A,2026-06-11T14:19:33.086208,14.37897775,.00033992,98.4736,236.1234,227.8195,132.2704,0,U,35946,999,87484,.43661549E-4,.88E-6,0
SMOS,2009-059A,2026-06-11T11:46:52.338720,14.39769543,.00013194,98.4425,349.9093,88.8797,271.2542,0,U,36036,999,87263,.84820237E-4,.222E-5,0
YAOGAN-7,2009-069A,2026-06-11T14:31:22.639296,14.78004259,.00258505,98.0080,48.5065,58.9791,301.3954,0,U,36110,999,88880,.66217747E-4,.427E-5,0
TANDEM-X,2010-030A,2026-06-09T06:54:02.839104,15.19149708,.00019024,97.4454,168.1075,90.0350,270.1102,0,U,36605,999,88544,.40127109E-4,.776E-5,0
CARTOSAT-2B,2010-035A,2026-06-11T14:06:20.263392,14.78656567,.00107106,97.9959,213.1733,202.5003,157.5740,0,U,36795,999,85902,.15714448E-3,.11E-4,0
YAOGAN-10,2010-038A,2026-06-11T15:14:19.741344,14.85331968,.00016485,97.8982,186.0834,89.9178,23.9911,0,U,36834,999,85638,.20164572E-3,.168E-4,0
COSMO-SKYMED 4,2010-060A,2026-06-11T15:18:29.072736,14.82147694,.00014041,97.8890,346.3185,79.6414,280.4958,0,U,37216,999,84374,-.1432988E-5,-.64E-6,0
RESOURCESAT-2,2011-015A,2026-06-11T14:22:47.614944,14.21605244,.00101238,98.7644,230.0794,273.5130,86.4890,0,U,37387,999,78538,.43937901E-4,.52E-6,0
HAIYANG-2A,2011-043A,2026-06-11T13:53:21.590304,13.74458053,.00061846,99.3396,165.3785,102.0560,258.1283,0,U,37781,999,74588,-.80059399E-4,-.119E-5,0
RASAT,2011-044D,2026-06-11T14:21:52.267104,14.68162266,.00197868,98.0569,254.0807,206.9066,265.4300,0,U,37791,999,79236,.1275776E-3,.687E-5,0
SRMSAT,2011-058D,2026-06-11T12:22:46.150752,14.11574372,.00119094,19.9715,93.7945,141.4141,27.1536,0,U,37841,999,75701,.48953915E-4,.355E-5,0
PLEIADES 1A,2011-076F,2026-06-11T15:36:30.990816,14.58568426,.00015692,98.1975,237.8275,96.9186,31.9917,0,U,38012,999,77118,.11241595E-3,.477E-5,0
ZIYUAN 1-02C (ZY 1-02C),2011-079A,2026-06-11T15:50:40.581024,14.38211725,.00058561,98.4073,230.0842,335.5611,144.0390,0,U,38038,999,75841,.24450999E-3,.7E-5,0
ARIRANG-3 (KOMPSAT-3),2012-025B,2026-06-11T15:02:25.560672,14.62201321,.0006459,98.1175,120.1827,123.4805,236.7014,0,U,38338,999,75053,.81555769E-4,.364E-5,0
EXACTVIEW-1 (ADS-1B),2012-039C,2026-06-11T13:16:47.869248,14.24982965,.00108593,98.9771,279.8164,182.3733,177.7396,0,U,38709,999,72190,.58582079E-4,.91E-6,0
SPOT 6,2012-047A,2026-06-11T15:23:12.855264,14.58560936,.00014553,98.2121,230.0150,90.7012,269.4354,0,U,38755,999,73224,.12739191E-3,.546E-5,0
PLEIADES 1B,2012-068A,2026-06-11T14:11:39.297120,14.58558253,.00016306,98.1946,237.7202,94.0448,266.0938,0,U,39019,999,72003,.12268953E-3,.525E-5,0
GOKTURK 2,2012-073A,2026-06-11T14:06:37.182240,14.75538122,.00017859,97.6828,0.3002,58.9424,301.1961,0,U,39030,999,72368,.10881137E-3,.694E-5,0
LANDSAT 8,2013-008A,2026-06-11T14:23:40.314624,14.57090820,.00013757,98.2302,232.8012,93.1280,267.0076,0,U,39084,999,69708,.71517469E-4,.277E-5,0
SARAL,2013-009A,2026-06-11T14:15:31.689792,14.32854567,.00010043,98.5557,349.2323,339.6554,20.4590,0,U,39086,999,69480,.46916689E-4,.84E-6,0
GAOFEN-1,2013-018A,2026-06-11T15:23:56.192640,14.76532378,.00157488,97.9095,234.8222,285.9618,73.9857,0,U,39150,999,70742,.94371361E-4,.608E-5,0
VNREDSAT 1,2013-021B,2026-06-11T14:59:11.618592,14.64851323,.00016579,97.9085,216.2542,89.3697,270.7697,0,U,39160,999,69947,.96332841E-4,.469E-5,0
ARIRANG-5 (KOMPSAT-5),2013-042A,2026-06-11T13:54:10.821024,15.04476719,.00048164,97.6218,349.3592,135.6105,224.5507,0,U,39227,999,70301,.92855579E-4,.1238E-4,0
SKYSAT-A,2013-066C,2026-06-11T08:54:23.086656,15.12942690,.00206154,97.3821,211.9533,338.6533,21.3837,0,U,39418,999,68760,.13349207E-3,.23E-4,0
DUBAISAT-2,2013-066D,2026-06-11T15:17:59.136864,15.10142589,.00127852,97.4564,152.9269,57.4978,302.7485,0,U,39419,999,68555,.24214375E-3,.3894E-4,0
GPM-CORE,2014-009C,2026-06-11T15:22:54.865920,15.44448866,.00121171,64.9722,326.7007,249.4481,110.5360,0,U,39574,999,69695,.23855436E-3,.10891E-3,0
SENTINEL-1A,2014-016A,2026-06-10T12:14:54.640032,14.59199013,.00014362,98.1783,169.1406,80.9924,279.1438,0,U,39634,999,64904,.70739944E-4,.288E-5,0
KAZEOSAT 1,2014-024A,2026-06-11T14:37:57.131328,14.42078692,.00014487,98.3205,235.1957,75.2402,284.8949,0,U,39731,999,63775,.12018031E-3,.352E-5,0
